{
  "type": "FeatureCollection",
  "features": [
    {
      "type": "Feature",
      "properties": {
        "norad_id": 43057,
        "name": "GSAT0217 (GALILEO 21)",
        "group": "gnss",
        "lat": 3.371709697905074,
        "lon": -130.91271978307446,
        "alt_km": 23214.330039108092,
        "timestamp": "2025-12-09T11:33:55.042017+00:00",
        "meta_object_name": "GSAT0217 (GALILEO 21)",
        "meta_object_id": "2017-079C",
        "meta_epoch": "2025-12-08T07:14:55.853376",
        "meta_mean_motion": 1.70473894,
        "meta_eccentricity": 0.0002795,
        "meta_inclination": 55.1299,
        "meta_ra_of_asc_node": 226.758,
        "meta_arg_of_pericenter": 342.2851,
        "meta_mean_anomaly": 17.7961,
        "meta_ephemeris_type": 0,
        "meta_classification_type": "U",
        "meta_norad_cat_id": 43057,
        "meta_element_set_no": 999,
        "meta_rev_at_epoch": 4973,
        "meta_bstar": 0,
        "meta_mean_motion_dot": 1.7e-07,
        "meta_mean_motion_ddot": 0,
        "tle_line1": "1 43057U 17079C   25342.30203534  .00000017  00000+0  00000+0 0  9995",
        "tle_line2": "2 43057  55.1299 226.7580 0002795 342.2851  17.7961  1.70473894 49737"
      },
      "geometry": {
        "type": "Point",
        "coordinates": [
          -130.91271978307446,
          3.371709697905074
        ]
      }
    },
    {
      "type": "Feature",
      "properties": {
        "norad_id": 43058,
        "name": "GSAT0218 (GALILEO 22)",
        "group": "gnss",
        "lat": -38.28840094681997,
        "lon": 80.09811112397959,
        "alt_km": 23224.868029818786,
        "timestamp": "2025-12-09T11:33:55.042035+00:00",
        "meta_object_name": "GSAT0218 (GALILEO 22)",
        "meta_object_id": "2017-079D",
        "meta_epoch": "2025-12-06T18:17:46.482720",
        "meta_mean_motion": 1.70473862,
        "meta_eccentricity": 0.00028449,
        "meta_inclination": 55.1307,
        "meta_ra_of_asc_node": 226.7982,
        "meta_arg_of_pericenter": 305.5375,
        "meta_mean_anomaly": 54.5328,
        "meta_ephemeris_type": 0,
        "meta_classification_type": "U",
        "meta_norad_cat_id": 43058,
        "meta_element_set_no": 999,
        "meta_rev_at_epoch": 4973,
        "meta_bstar": 0,
        "meta_mean_motion_dot": 2.9e-07,
        "meta_mean_motion_ddot": 0,
        "tle_line1": "1 43058U 17079D   25340.76234355  .00000029  00000+0  00000+0 0  9992",
        "tle_line2": "2 43058  55.1307 226.7982 0002844 305.5375  54.5328  1.70473862 49733"
      },
      "geometry": {
        "type": "Point",
        "coordinates": [
          80.09811112397959,
          -38.28840094681997
        ]
      }
    },
    {
      "type": "Feature",
      "properties": {
        "norad_id": 43107,
        "name": "BEIDOU-3 M7 (C27)",
        "group": "gnss",
        "lat": 29.608024016368407,
        "lon": 104.99793140505616,
        "alt_km": 21522.004378116224,
        "timestamp": "2025-12-09T11:33:55.042054+00:00",
        "meta_object_name": "BEIDOU-3 M7 (C27)",
        "meta_object_id": "2018-003A",
        "meta_epoch": "2025-12-08T17:34:34.070592",
        "meta_mean_motion": 1.86232165,
        "meta_eccentricity": 0.0002554,
        "meta_inclination": 54.5005,
        "meta_ra_of_asc_node": 308.9546,
        "meta_arg_of_pericenter": 71.3868,
        "meta_mean_anomaly": 288.6293,
        "meta_ephemeris_type": 0,
        "meta_classification_type": "U",
        "meta_norad_cat_id": 43107,
        "meta_element_set_no": 999,
        "meta_rev_at_epoch": 5380,
        "meta_bstar": 0,
        "meta_mean_motion_dot": -7.5e-07,
        "meta_mean_motion_ddot": 0,
        "tle_line1": "1 43107U 18003A   25342.73233878 -.00000075  00000+0  00000+0 0  9995",
        "tle_line2": "2 43107  54.5005 308.9546 0002554  71.3868 288.6293  1.86232165 53808"
      },
      "geometry": {
        "type": "Point",
        "coordinates": [
          104.99793140505616,
          29.608024016368407
        ]
      }
    },
    {
      "type": "Feature",
      "properties": {
        "norad_id": 43108,
        "name": "BEIDOU-3 M8 (C28)",
        "group": "gnss",
        "lat": 0.4570195304737061,
        "lon": 128.56586953612694,
        "alt_km": 21529.686726587144,
        "timestamp": "2025-12-09T11:33:55.042072+00:00",
        "meta_object_name": "BEIDOU-3 M8 (C28)",
        "meta_object_id": "2018-003B",
        "meta_epoch": "2025-12-08T03:21:57.743424",
        "meta_mean_motion": 1.86230794,
        "meta_eccentricity": 0.00047249,
        "meta_inclination": 54.4937,
        "meta_ra_of_asc_node": 308.9576,
        "meta_arg_of_pericenter": 275.4662,
        "meta_mean_anomaly": 84.4669,
        "meta_ephemeris_type": 0,
        "meta_classification_type": "U",
        "meta_norad_cat_id": 43108,
        "meta_element_set_no": 999,
        "meta_rev_at_epoch": 5380,
        "meta_bstar": 0,
        "meta_mean_motion_dot": -7.3e-07,
        "meta_mean_motion_ddot": 0,
        "tle_line1": "1 43108U 18003B   25342.14025166 -.00000073  00000+0  00000+0 0  9998",
        "tle_line2": "2 43108  54.4937 308.9576 0004724 275.4662  84.4669  1.86230794 53800"
      },
      "geometry": {
        "type": "Point",
        "coordinates": [
          128.56586953612694,
          0.4570195304737061
        ]
      }
    },
    {
      "type": "Feature",
      "properties": {
        "norad_id": 43207,
        "name": "BEIDOU-3 M4 (C22)",
        "group": "gnss",
        "lat": -48.10452284539387,
        "lon": -63.042805812805135,
        "alt_km": 21540.84832370346,
        "timestamp": "2025-12-09T11:33:55.042098+00:00",
        "meta_object_name": "BEIDOU-3 M4 (C22)",
        "meta_object_id": "2018-018A",
        "meta_epoch": "2025-12-06T10:25:28.940736",
        "meta_mean_motion": 1.86230708,
        "meta_eccentricity": 0.00041784,
        "meta_inclination": 56.4806,
        "meta_ra_of_asc_node": 69.5126,
        "meta_arg_of_pericenter": 11.9666,
        "meta_mean_anomaly": 348.0575,
        "meta_ephemeris_type": 0,
        "meta_classification_type": "U",
        "meta_norad_cat_id": 43207,
        "meta_element_set_no": 999,
        "meta_rev_at_epoch": 5315,
        "meta_bstar": 0,
        "meta_mean_motion_dot": -4.5e-07,
        "meta_mean_motion_ddot": 0,
        "tle_line1": "1 43207U 18018A   25340.43436274 -.00000045  00000+0  00000+0 0  9999",
        "tle_line2": "2 43207  56.4806  69.5126 0004178  11.9666 348.0575  1.86230708 53156"
      },
      "geometry": {
        "type": "Point",
        "coordinates": [
          -63.042805812805135,
          -48.10452284539387
        ]
      }
    },
    {
      "type": "Feature",
      "properties": {
        "norad_id": 43208,
        "name": "BEIDOU-3 M3 (C21)",
        "group": "gnss",
        "lat": -15.367224653401514,
        "lon": -100.09502920654474,
        "alt_km": 21538.830907364696,
        "timestamp": "2025-12-09T11:33:55.042117+00:00",
        "meta_object_name": "BEIDOU-3 M3 (C21)",
        "meta_object_id": "2018-018B",
        "meta_epoch": "2025-12-08T02:40:56.254080",
        "meta_mean_motion": 1.86230991,
        "meta_eccentricity": 0.0006453,
        "meta_inclination": 56.4817,
        "meta_ra_of_asc_node": 69.4614,
        "meta_arg_of_pericenter": 316.7872,
        "meta_mean_anomaly": 43.1825,
        "meta_ephemeris_type": 0,
        "meta_classification_type": "U",
        "meta_norad_cat_id": 43208,
        "meta_element_set_no": 999,
        "meta_rev_at_epoch": 5318,
        "meta_bstar": 0,
        "meta_mean_motion_dot": -4.4e-07,
        "meta_mean_motion_ddot": 0,
        "tle_line1": "1 43208U 18018B   25342.11176220 -.00000044  00000+0  00000+0 0  9998",
        "tle_line2": "2 43208  56.4817  69.4614 0006453 316.7872  43.1825  1.86230991 53181"
      },
      "geometry": {
        "type": "Point",
        "coordinates": [
          -100.09502920654474,
          -15.367224653401514
        ]
      }
    },
    {
      "type": "Feature",
      "properties": {
        "norad_id": 43245,
        "name": "BEIDOU-3 M9 (C29)",
        "group": "gnss",
        "lat": 40.91938632593157,
        "lon": -15.03205223697189,
        "alt_km": 21526.929493295353,
        "timestamp": "2025-12-09T11:33:55.042137+00:00",
        "meta_object_name": "BEIDOU-3 M9 (C29)",
        "meta_object_id": "2018-029A",
        "meta_epoch": "2025-12-08T20:45:22.665024",
        "meta_mean_motion": 1.86227881,
        "meta_eccentricity": 0.0001669,
        "meta_inclination": 54.3693,
        "meta_ra_of_asc_node": 306.6022,
        "meta_arg_of_pericenter": 274.1611,
        "meta_mean_anomaly": 85.8087,
        "meta_ephemeris_type": 0,
        "meta_classification_type": "U",
        "meta_norad_cat_id": 43245,
        "meta_element_set_no": 999,
        "meta_rev_at_epoch": 5235,
        "meta_bstar": 0,
        "meta_mean_motion_dot": -7.4e-07,
        "meta_mean_motion_ddot": 0,
        "tle_line1": "1 43245U 18029A   25342.86484566 -.00000074  00000+0  00000+0 0  9991",
        "tle_line2": "2 43245  54.3693 306.6022 0001669 274.1611  85.8087  1.86227881 52357"
      },
      "geometry": {
        "type": "Point",
        "coordinates": [
          -15.03205223697189,
          40.91938632593157
        ]
      }
    }
  ]
}